NORAD_CAT_ID,OBJECT_NAME,OBJECT_TYPE,EPOCH,MEAN_MOTION,ECCENTRICITY,INCLINATION,RA_OF_ASC_NODE,ARG_OF_PERICENTER,MEAN_ANOMALY,BSTAR,MEAN_MOTION_DOT,MEAN_MOTION_DDOT,TLE_LINE0,TLE_LINE1,TLE_LINE2,SEMIMAJOR_AXIS,PERIOD,APOGEE,PERIGEE,DECAYED
51809.0,STARLINK-3607,PAYLOAD,2023-03-12 09:49:35,15.0882248,0.0001213,53.216,207.0461,92.8408,267.2723,1.2905e-05,-8.3e-07,0.0,0 STARLINK-3607,1 51809U 22017AT  23071.40943366 -.00000083  00000-0  12905-4 0  9996,2 51809  53.2160 207.0461 0001213  92.8408 267.2723 15.08822480 59012,6917.934,95.439,540.638,538.96,0.0
51809.0,STARLINK-3607,PAYLOAD,2023-03-12 11:24:58,15.08825325,0.0001207,53.2155,206.7478,93.9568,266.1562,4.3338e-05,4.02e-06,0.0,0 STARLINK-3607,1 51809U 22017AT  23071.47567274  .00000402  00000-0  43338-4 0  9991,2 51809  53.2155 206.7478 0001207  93.9568 266.1562 15.08825325 59023,6917.925,95.438,540.625,538.955,0.0
51809.0,STARLINK-3607,PAYLOAD,2023-03-12 17:46:30,15.08838717,0.0001249,53.2152,205.5568,92.0154,268.0981,0.00022451,3.287e-05,0.0,0 STARLINK-3607,1 51809U 22017AT  23071.74062614  .00003287  00000-0  22451-3 0  9995,2 51809  53.2152 205.5568 0001249  92.0154 268.0981 15.08838717 59063,6917.884,95.438,540.613,538.885,0.0
51809.0,STARLINK-3607,PAYLOAD,2023-03-13 03:18:49,15.08826609,0.0001224,53.2157,203.7742,86.7228,273.3904,1.1286e-05,-1.08e-06,0.0,0 STARLINK-3607,1 51809U 22017AT  23072.13807548 -.00000108  00000-0  11286-4 0  9997,2 51809  53.2157 203.7742 0001224  86.7228 273.3904 15.08826609 59125,6917.921,95.438,540.633,538.94,0.0
51809.0,STARLINK-3607,PAYLOAD,2023-03-13 11:15:44,15.08846038,0.0001404,53.2148,202.2866,98.1502,261.9649,0.00031866,4.788e-05,0.0,0 STARLINK-3607,1 51809U 22017AT  23072.46926675  .00004788  00000-0  31866-3 0  9998,2 51809  53.2148 202.2866 0001404  98.1502 261.9649 15.08846038 59170,6917.862,95.437,540.698,538.756,0.0
51809.0,STARLINK-3607,PAYLOAD,2023-03-14 04:44:59,15.08820749,8.99e-05,53.2148,199.014,91.7306,268.3789,-0.0002202,-3.789e-05,0.0,0 STARLINK-3607,1 51809U 22017AT  23073.19790938 -.00003789  00000-0 -22020-3 0  9994,2 51809  53.2148 199.0140 0000899  91.7306 268.3789 15.08820749 59285,6917.939,95.439,540.426,539.182,0.0
51809.0,STARLINK-3607,PAYLOAD,2023-03-14 11:06:32,15.08821433,0.0001354,53.215,197.8256,110.575,249.5388,-0.00014053,-2.523e-05,0.0,0 STARLINK-3607,1 51809U 22017AT  23073.46287149 -.00002523  00000-0 -14053-3 0  9991,2 51809  53.2150 197.8256 0001354 110.5750 249.5388 15.08821433 59324,6917.937,95.439,540.739,538.865,0.0
51809.0,STARLINK-3607,PAYLOAD,2023-03-15 03:00:22,15.088443,0.0001267,53.215,194.8515,111.4906,248.6221,0.00018108,2.596e-05,0.0,0 STARLINK-3607,1 51809U 22017AT  23074.12526124  .00002596  00000-0  18108-3 0  9997,2 51809  53.2150 194.8515 0001267 111.4906 248.6221 15.08844300 59420,6917.867,95.437,540.609,538.856,0.0
51809.0,STARLINK-3607,PAYLOAD,2023-03-15 12:32:40,15.08866621,0.0001218,53.2141,193.0689,93.2922,266.8209,0.00064165,9.946e-05,0.0,0 STARLINK-3607,1 51809U 22017AT  23074.52269423  .00009946  00000-0  64165-3 0  9997,2 51809  53.2141 193.0689 0001218  93.2922 266.8209 15.08866621 59488,6917.799,95.436,540.507,538.821,0.0
51809.0,STARLINK-3607,PAYLOAD,2023-03-16 04:26:32,15.08827847,0.0001024,53.2138,190.0934,117.6854,242.4242,-0.00051939,-8.541e-05,0.0,0 STARLINK-3607,1 51809U 22017AT  23075.18509630 -.00008541  00000-0 -51939-3 0  9994,2 51809  53.2138 190.0934 0001024 117.6854 242.4242 15.08827847 59589,6917.918,95.438,540.491,539.074,0.0
51809.0,STARLINK-3607,PAYLOAD,2023-03-16 10:48:04,15.08816164,9.7e-05,53.2138,188.9045,123.8629,236.2456,0.0005038,7.734e-05,0.0,0 STARLINK-3607,1 51809U 22017AT  23075.45005606  .00007734  00000-0  50380-3 0  9998,2 51809  53.2138 188.9045 0000970 123.8629 236.2456 15.08816164 59629,6917.953,95.439,540.489,539.147,0.0
51809.0,STARLINK-3607,PAYLOAD,2023-03-17 07:28:07,15.08824647,7.42e-05,53.2144,185.0431,108.4796,251.6277,0.0012496,0.00019647,0.0,0 STARLINK-3607,1 51809U 22017AT  23076.31119771  .00019647  00000-0  12496-2 0  9994,2 51809  53.2144 185.0431 0000742 108.4796 251.6277 15.08824647 59755,6917.927,95.439,540.306,539.279,0.0
51809.0,STARLINK-3607,PAYLOAD,2023-03-17 10:38:53,15.0881443,0.0001008,53.2156,184.4412,133.6234,226.4842,0.00071294,0.00011069,0.0,0 STARLINK-3607,1 51809U 22017AT  23076.44367963  .00011069  00000-0  71294-3 0  9998,2 51809  53.2156 184.4412 0001008 133.6234 226.4842 15.08814430 59772,6917.959,95.439,540.521,539.126,0.0
51809.0,STARLINK-3607,PAYLOAD,2023-03-18 02:32:45,15.08842283,9.56e-05,53.2148,181.4675,133.2148,226.8924,0.0011478,0.00018028,0.0,0 STARLINK-3607,1 51809U 22017AT  23077.10608213  .00018028  00000-0  11478-2 0  9997,2 51809  53.2148 181.4675 0000956 133.2148 226.8924 15.08842283 59875,6917.873,95.437,540.4,539.077,0.0
51809.0,STARLINK-3607,PAYLOAD,2023-03-18 13:40:26,15.08887001,7.5e-05,53.2153,179.3902,66.8326,293.2745,0.0020922,0.00033209,0.0,0 STARLINK-3607,1 51809U 22017AT  23077.56975365  .00033209  00000-0  20922-2 0  9994,2 51809  53.2153 179.3902 0000750  66.8326 293.2745 15.08887001 59945,6917.737,95.435,540.121,539.083,0.0
51809.0,STARLINK-3607,PAYLOAD,2023-03-19 05:34:17,15.0885061,0.0001016,53.2152,176.4166,86.5269,273.5839,6.7912e-05,7.94e-06,0.0,0 STARLINK-3607,1 51809U 22017AT  23078.23214943  .00000794  00000-0  67912-4 0  9992,2 51809  53.2152 176.4166 0001016  86.5269 273.5839 15.08850610 60049,6917.848,95.437,540.416,539.01,0.0
51809.0,STARLINK-3607,PAYLOAD,2023-03-19 13:31:13,15.08859343,9.43e-05,53.2155,174.9297,94.3977,265.7123,0.0020738,0.00032888,0.0,0 STARLINK-3607,1 51809U 22017AT  23078.56334915  .00032888  00000-0  20738-2 0  9992,2 51809  53.2155 174.9297 0000943  94.3977 265.7123 15.08859343 60097,6917.821,95.436,540.339,539.034,0.0
51809.0,STARLINK-3607,PAYLOAD,2023-03-20 07:00:28,15.08832806,0.0001081,53.2155,171.6589,80.559,279.5525,0.00017655,2.523e-05,0.0,0 STARLINK-3607,1 51809U 22017AT  23079.29199232  .00002523  00000-0  17655-3 0  9992,2 51809  53.2155 171.6589 0001081  80.5590 279.5525 15.08832806 60204,6917.902,95.438,540.515,539.02,0.0
51809.0,STARLINK-3607,PAYLOAD,2023-03-20 13:22:00,15.08843387,9.34e-05,53.2155,170.4696,73.8818,286.2277,0.0020372,0.00032286,0.0,0 STARLINK-3607,1 51809U 22017AT  23079.55695410  .00032286  00000-0  20372-2 0  9998,2 51809  53.2155 170.4696 0000934  73.8818 286.2277 15.08843387 60243,6917.87,95.437,540.381,539.089,0.0
51809.0,STARLINK-3607,PAYLOAD,2023-03-21 13:12:47,15.0886485,0.0001132,53.2149,166.0093,56.1153,303.9947,0.0021952,0.00034845,0.0,0 STARLINK-3607,1 51809U 22017AT  23080.55055097  .00034845  00000-0  21952-2 0  9999,2 51809  53.2149 166.0093 0001132  56.1153 303.9947 15.08864850 60390,6917.804,95.436,540.453,538.886,0.0
51809.0,STARLINK-3607,PAYLOAD,2023-03-22 03:31:16,15.08835668,0.0001079,53.2151,163.3331,73.8889,286.2222,0.00044979,6.877e-05,0.0,0 STARLINK-3607,1 51809U 22017AT  23081.14671377  .00006877  00000-0  44979-3 0  9999,2 51809  53.2151 163.3331 0001079  73.8889 286.2222 15.08835668 60484,6917.894,95.438,540.505,539.012,0.0
51809.0,STARLINK-3607,PAYLOAD,2023-03-22 11:28:11,15.08842926,0.000113,53.2146,161.8469,73.1633,286.9483,0.0015174,0.00023946,0.0,0 STARLINK-3607,1 51809U 22017AT  23081.47791446  .00023946  00000-0  15174-2 0  9995,2 51809  53.2146 161.8469 0001130  73.1633 286.9483 15.08842926 60538,6917.871,95.437,540.518,538.955,0.0
51809.0,STARLINK-3607,PAYLOAD,2023-03-23 04:57:26,15.08857907,0.0001239,53.214,158.5752,100.7853,259.3278,0.0016583,0.00026215,0.0,0 STARLINK-3607,1 51809U 22017AT  23082.20655435  .00026215  00000-0  16583-2 0  9991,2 51809  53.2140 158.5752 0001239 100.7853 259.3278 15.08857907 60644,6917.826,95.436,540.548,538.834,0.0
51809.0,STARLINK-3607,PAYLOAD,2023-03-23 11:18:58,15.08854064,0.0001272,53.2141,157.385,77.6106,282.5028,0.00097402,0.00015253,0.0,0 STARLINK-3607,1 51809U 22017AT  23082.47151397  .00015253  00000-0  97402-3 0  9998,2 51809  53.2141 157.3850 0001272  77.6106 282.5028 15.08854064 60687,6917.837,95.437,540.582,538.822,0.0
51809.0,STARLINK-3607,PAYLOAD,2023-03-24 11:09:44,15.08862249,0.0001153,53.2136,152.9256,94.0492,266.0632,0.00041923,6.394e-05,0.0,0 STARLINK-3607,1 51809U 22017AT  23083.46510051  .00006394  00000-0  41923-3 0  9997,2 51809  53.2136 152.9256 0001153  94.0492 266.0632 15.08862249 60830,6917.812,95.436,540.475,538.88,0.0
51809.0,STARLINK-3607,PAYLOAD,2023-03-24 23:52:50,15.08820329,0.0001275,53.2137,150.5443,125.4018,234.7093,-0.00063968,-0.00010448,0.0,0 STARLINK-3607,1 51809U 22017AT  23083.99503040 -.00010448  00000-0 -63968-3 0  9995,2 51809  53.2137 150.5443 0001275 125.4018 234.7093 15.08820329 60916,6917.941,95.439,540.688,538.923,0.0
51809.0,STARLINK-3607,PAYLOAD,2023-03-25 11:00:33,15.08796721,0.0001354,53.214,148.4631,123.2646,236.8476,-0.00028817,-4.866e-05,0.0,0 STARLINK-3607,1 51809U 22017AT  23084.45872683 -.00004866  00000-0 -28817-3 0  9990,2 51809  53.2140 148.4631 0001354 123.2646 236.8476 15.08796721 60989,6918.013,95.44,540.814,538.941,0.0
51809.0,STARLINK-3607,PAYLOAD,2023-03-25 20:32:53,15.08807501,0.0002206,53.2169,146.6851,143.2792,216.8351,0.00099822,0.0001562,0.0,0 STARLINK-3607,1 51809U 22017AT  23084.85617701  .00015620  00000-0  99822-3 0  9994,2 51809  53.2169 146.6851 0002206 143.2792 216.8351 15.08807501 61042,6917.98,95.44,541.371,538.319,0.0
51809.0,STARLINK-3607,PAYLOAD,2023-03-26 10:51:21,15.08865633,0.0001031,53.2145,144.0033,116.9631,243.1466,0.0021014,0.00033338,0.0,0 STARLINK-3607,1 51809U 22017AT  23085.45233329  .00033338  00000-0  21014-2 0  9994,2 51809  53.2145 144.0033 0001031 116.9631 243.1466 15.08865633 61134,6917.802,95.436,540.38,538.954,0.0
51809.0,STARLINK-3607,PAYLOAD,2023-03-26 20:23:40,15.08860153,0.0001176,53.2154,142.2211,110.3518,249.76,0.00087082,0.00013606,0.0,0 STARLINK-3607,1 51809U 22017AT  23085.84977022  .00013606  00000-0  87082-3 0  9996,2 51809  53.2154 142.2211 0001176 110.3518 249.7600 15.08860153 61194,6917.819,95.436,540.497,538.87,0.0
